TEMPEST-D               
1 43547U 98067NV  20127.12998197  .00004530  00000-0  56785-4 0  9998
2 43547  51.6357 165.4709 0004320 261.7831  98.2673 15.62018230102906
RAINCUBE                
1 43548U 98067NW  20127.21494630  .00027575  00000-0  20774-3 0  9994
2 43548  51.6316 146.3943 0003739 318.5171  41.5542 15.72287918103618
HALOSAT                 
1 43549U 98067NX  20126.56215683  .00016091  00000-0  12629-3 0  9992
2 43549  51.6346 150.3518 0003288 320.2678  39.8079 15.71713099103063
ENDUROSAT ONE           
1 43551U 98067NZ  20127.55099364  .00048522  00000-0  28170-3 0  9993
2 43551  51.6326 135.8567 0004087 342.2824  17.8033 15.78009190103750
EQUISAT                 
1 43552U 98067PA  20127.24514856  .00028202  00000-0  21156-3 0  9998
2 43552  51.6338 145.2013 0004398 321.9532  38.1155 15.72372475103563
AEROCUBE 12A            
1 43556U 18046C   20127.49639147  .00001927  00000-0  78352-4 0  9995
2 43556  51.6426 307.1423 0008673 142.7568 217.4016 15.29696163100950
AEROCUBE 12B            
1 43557U 18046D   20127.35357545  .00000990  00000-0  46667-4 0  9993
2 43557  51.6428 308.4286 0008706 141.6619 218.4981 15.29427864100879
UITMSAT-1               
1 43589U 98067PD  20127.08226298  .00031151  00000-0  21242-3 0  9993
2 43589  51.6301 144.6899 0004550 339.0154  21.0658 15.74552832 99290
MAYA-1                  
1 43590U 98067PE  20127.32899473  .00037027  00000-0  25119-3 0  9998
2 43590  51.6291 143.3471 0004663 338.4162  21.6640 15.74581219 99264
BHUTAN-1                
1 43591U 98067PF  20127.43209582  .00039168  00000-0  26396-3 0  9993
2 43591  51.6316 142.5945 0004634 341.1035  18.9792 15.74707426 99287
SIRIUSSAT-1             
1 43595U 98067PG  20127.23175521  .00031445  00000-0  23386-3 0  9996
2 43595  51.6313 147.9747 0002084 336.2468  23.8434 15.72523070 98375
SIRIUSSAT-2             
1 43596U 98067PH  20127.22715373  .00032050  00000-0  23929-3 0  9997
2 43596  51.6320 148.7648 0002112 324.4148  35.6709 15.72420173 98364
TANUSHA-3               
1 43597U 98067PJ  20127.25838963  .00075740  00000-0  38616-3 0  9994
2 43597  51.6284 138.2605 0003606   9.6365 350.4705 15.80700384 98507
SURFSAT                 
1 43614U 18070B   20127.27348057  .00002764  00000-0  71511-4 0  9990
2 43614  93.0199 137.1592 0017408 133.0348 227.2368 15.38999049 91996
CP7 (DAVE)              
1 43615U 18070C   20127.17100883  .00002521  00000-0  65523-4 0  9990
2 43615  93.0201 137.1096 0017564 133.1080 227.1647 15.38863052 91978
ELFIN-B                 
1 43616U 18070D   20127.44216956  .00003662  00000-0  91228-4 0  9998
2 43616  93.0164 137.1517 0018036 133.9542 226.3205 15.40120613 92054
ELFIN-A                 
1 43617U 18070E   20127.09046174  .00003515  00000-0  87112-4 0  9997
2 43617  93.0217 137.4831 0017459 132.0190 228.2554 15.40288279 92009
CUBEBEL-1 (BSUSAT-1)    
1 43666U 18083E   20127.52905406  .00001028  00000-0  53503-4 0  9999
2 43666  97.4919 154.4017 0015952 140.9979  14.7381 15.18184636 84255
DEBRISSAT-2             
1 43680U 98067PR  20127.38974066  .00323380  53825-4  70145-3 0  9992
2 43680  51.6270 127.8184 0005838  38.4434 321.6990 15.97788481107382
CICERO 10               
1 43690U 18088A   20127.16770922  .00000888  00000-0  39032-4 0  9998
2 43690  85.0354 106.1838 0017260 103.1770 257.1398 15.20174475 82338
IRVINE01                
1 43693U 18088D   20127.43572097  .00002524  00000-0  10603-3 0  9995
2 43693  85.0325 104.8228 0020495  86.4481 273.9105 15.22701200 82452
PROXIMA I               
1 43694U 18088E   20127.20813347  .00001032  00000-0  43261-4 0  9997
2 43694  85.0298 104.7947 0021665  80.0609 280.3077 15.21904832 82423
PROXIMA II              
1 43696U 18088G   20127.40367335  .00001027  00000-0  43027-4 0  9996
2 43696  85.0299 104.6684 0021701  79.3637 281.0047 15.21907706 82446
FACSAT-1                
1 43721U 18096C   20127.47310553  .00001307  00000-0  51810-4 0  9991
2 43721  97.4222 201.2727 0015922 270.9925  88.9490 15.27119172 79986
CENTAURI-2              
1 43722U 18096D   20127.18539920  .00001780  00000-0  68513-4 0  9994
2 43722  97.4232 201.2224 0015905 271.8588  88.0830 15.27613035 79948
INNOSAT-2               
1 43738U 18096V   20127.47849529  .00002608  00000-0  91507-4 0  9991
2 43738  97.4249 203.3107 0021726 278.6703  81.2076 15.30139605 80116
SIRION PATHFINDER-2     
1 43759U 18099B   20127.48611009  .00000540  00000-0  54253-4 0  9998
2 43759  97.7073 199.8568 0013282 329.0430  31.0007 14.95262278 77658
CORVUS-BC 4             
1 43767U 18099K   20127.21092476  .00000576  00000-0  58287-4 0  9999
2 43767  97.7054 199.0429 0010942 335.3085  24.7611 14.94706670 77591
MOVE-II                 
1 43780U 18099Y   20127.16785943  .00000313  00000-0  33567-4 0  9999
2 43780  97.7079 199.4633 0012853 342.7052  17.3729 14.95364093 77591
SPACEBEE-7              
1 43816U 18099BL  20126.91483439 -.00000078  00000-0 -18051-5 0  9998
2 43816  97.7091 199.5800 0012444 326.5654  33.4780 14.95660752 77133
SPACEBEE-5              
1 43817U 18099BM  20127.42004639  .00001512  00000-0  13898-3 0  9991
2 43817  97.7142 200.4579 0011683 325.4241  34.6220 14.96231566 77220
SPACEBEE-6              
1 43818U 18099BN  20127.48559925  .00001034  00000-0  97593-4 0  9995
2 43818  97.7106 200.2605 0012057 324.8606  35.1819 14.95841454 77371
SHIELDS 1               
1 43850U 18104B   20126.97522726  .00000041  00000-0  00000+0 0  9999
2 43850  85.0310 203.4256 0013109 219.6678 140.3597 15.21353721 77018
STF-1                   
1 43852U 18104D   20126.98480862  .00000041  00000-0  00000+0 0  9996
2 43852  85.0342 203.9285 0012354 237.1909 122.8202 15.21207698 76990
ZACUBE-2                
1 43907U 18111AH  20127.44628659  .00000514  00000-0  23635-4 0  9994
2 43907  97.2692  28.4674 0019936 294.2511  65.6643 15.24550802 75614
LUME 1                  
1 43908U 18111AJ  20127.25110636  .00001011  00000-0  43192-4 0  9998
2 43908  97.2693  28.4212 0019692 294.7592  65.1597 15.24967318 75591
AOBA VELOX-IV           
1 43940U 19003J   20122.67935571  .00002295  00000-0  94415-4 0  9998
2 43940  97.2321 175.5541 0024757  33.1416  83.9199 15.24860275 71521
CATSAT-2                
1 44029U 98067PV  20127.09579126  .00013668  00000-0  14695-3 0  9992
2 44029  51.6374 170.5469 0003935 303.7324  56.3296 15.64068889 71892
DELPHINI                
1 44030U 98067PW  20127.13832167  .00016829  00000-0  17391-3 0  9994
2 44030  51.6336 169.2373 0003855 306.8633  53.2009 15.64882931 71888
UNITE                   
1 44031U 98067PX  20127.18327535  .00008654  00000-0  10853-3 0  9991
2 44031  51.6365 174.8453 0002727 293.8620  66.2088 15.60631924 71814
TECHEDSAT 8             
1 44032U 98067PY  20111.15468586  .13178104  12516-4  85387-3 0  9999
2 44032  51.6107 221.1148 0008059 315.3167  44.7209 16.40789031 69743
CATSAT-1                
1 44033U 98067PZ  20127.41512910  .00016510  00000-0  17624-3 0  9995
2 44033  51.6376 168.9355 0003737 304.4676  55.5965 15.64071534 71853
RAAVANA-1               
1 44329U 98067QE  20127.16735442  .00009621  00000-0  13633-3 0  9993
2 44329  51.6383 186.0349 0005119 205.5530 154.5210 15.57188808 50416
UGUISU                  
1 44330U 98067QF  20127.17777563  .00009508  00000-0  13517-3 0  9991
2 44330  51.6385 186.1005 0005106 203.8777 156.1978 15.57118471 50395
NEPALISAT-1             
1 44331U 98067QG  20127.09634087  .00008559  00000-0  12193-3 0  9990
2 44331  51.6386 186.3098 0005166 207.0553 153.0170 15.57216217 50392
SPOOQY-1                
1 44332U 98067QH  20127.41827620  .00009450  00000-0  13428-3 0  9997
2 44332  51.6384 184.7070 0004143 211.2063 148.8684 15.57142352 50402
SPACEBEE-9              
1 44370U 19037F   20127.07381334  .00006927  00000-0  16169-3 0  9999
2 44370  45.0158 352.6016 0013722 295.6436  64.3036 15.42895452 48050
SPACEBEE-8              
1 44371U 19037G   20127.06047016  .00013519  00000-0  27193-3 0  9999
2 44371  45.0182 348.2929 0011312 296.3941  63.5787 15.46569529 48099
IOD-1 GEMS              
1 44385U 98067QK  20127.52722733  .00014682  00000-0  19067-3 0  9994
2 44385  51.6396 183.2291 0001501 147.1897 212.9190 15.59060703 47940
MOVE-IIB                
1 44398U 19038N   20127.20546722  .00000965  00000-0  59305-4 0  9995
2 44398  97.5329  88.9871 0023521 273.8052  86.0489 15.12244751 46193
SONATE                  
1 44400U 19038Q   20127.49499045  .00000461  00000-0  30592-4 0  9993
2 44400  97.5362  89.2908 0023576 270.8278  89.0251 15.11920449 46235
LUCKY-7                 
1 44406U 19038W   20127.45173813  .00000587  00000-0  37675-4 0  9995
2 44406  97.5359  89.3378 0022968 270.7200  89.1399 15.12177085 46221
BEESAT 9                
1 44412U 19038AC  20127.12151945  .00000800  00000-0  49917-4 0  9998
2 44412  97.5350  88.9931 0021067 278.3138  81.5704 15.12240576 45874
JAISAT-1                
1 44419U 19038F   20127.41991351  .00000804  00000-0  49482-4 0  9991
2 44419  97.5352  89.5201 0019940 276.4524  83.4437 15.12724109 46240
SWIATOWID               
1 44426U 98067QL  20127.43757953  .00015813  00000-0  19966-3 0  9997
2 44426  51.6422 183.3321 0001943 140.1106 234.2725 15.59741160 47952
KRAKSAT                 
1 44427U 98067QM  20127.40247949  .00005905  00000-0  91944-4 0  9992
2 44427  51.6425 187.4436 0003552 148.6101 302.5606 15.55445416 47930
VCC A                   
1 44428U 98067QN  20127.46427105  .00008942  00000-0  13001-3 0  9994
2 44428  51.6401 185.8046 0001905 172.1813 187.9208 15.56596247 47962
ENTRYSAT                
1 44429U 98067QP  20126.43177920  .00009430  00000-0  13269-3 0  9997
2 44429  51.6390 190.1388 0001592 153.6515 206.4558 15.57413585 47816
VCC C                   
1 44430U 98067QQ  20127.39670422  .00014537  00000-0  19327-3 0  9995
2 44430  51.6380 184.5943 0001161 178.0760 182.0237 15.58442366 46795
